STARLINK-37339          
1 68735U 26082H   26113.55088020 -.01208878  00000+0 -68606-2 0  9991
2 68735  97.2875 335.6765 0000797 139.2195 220.9133 15.81554405  1185
