{
  "norad_id": 68735,
  "name": "STARLINK-37339",
  "history": [
    {
      "epoch": "2026-04-23T13:13:16.049280Z",
      "apogee_km": 326.57889531865294,
      "perigee_km": 325.50971248430596,
      "latitude_deg": -3.403479745376034e-05,
      "longitude_deg": -74.23686136744678,
      "height_km": 329.62516944613134,
      "semi_major_axis_km": 6704.181303901479,
      "eccentricity": 7.974e-05,
      "inclination_deg": 97.2875,
      "raan_deg": 335.6765,
      "arg_perigee_deg": 139.2195,
      "mean_anomaly_deg": 220.9133,
      "mean_motion_rev_day": 15.81554405
    }
  ]
}